{
  "type": "FeatureCollection",
  "features": [
    {
      "type": "Feature",
      "properties": {
        "norad_id": 29876,
        "name": "FENGYUN 1C DEB",
        "group": "fengyun-1c-debris",
        "lat": -2.0452045622311346,
        "lon": 27.917054520519923,
        "alt_km": 798.1110407272081,
        "timestamp": "2025-12-02T10:50:47.545956+00:00",
        "meta_object_name": "FENGYUN 1C DEB",
        "meta_object_id": "1999-025FW",
        "meta_epoch": "2025-12-02T02:39:07.174080",
        "meta_mean_motion": 14.20286499,
        "meta_eccentricity": 0.0062062,
        "meta_inclination": 98.3348,
        "meta_ra_of_asc_node": 27.2953,
        "meta_arg_of_pericenter": 48.0922,
        "meta_mean_anomaly": 5.6983,
        "meta_ephemeris_type": 0,
        "meta_classification_type": "U",
        "meta_norad_cat_id": 29876,
        "meta_element_set_no": 999,
        "meta_rev_at_epoch": 97766,
        "meta_bstar": 0.00016922,
        "meta_mean_motion_dot": 3.29e-06,
        "meta_mean_motion_ddot": 0,
        "tle_line1": "1 29876U 99025FW  25336.11049970  .00000329  00000+0  16922-3 0  9993",
        "tle_line2": "2 29876  98.3348  27.2953 0062062  48.0922   5.6983 14.20286499977669"
      },
      "geometry": {
        "type": "Point",
        "coordinates": [
          27.917054520519923,
          -2.0452045622311346
        ]
      }
    },
    {
      "type": "Feature",
      "properties": {
        "norad_id": 29877,
        "name": "FENGYUN 1C DEB",
        "group": "fengyun-1c-debris",
        "lat": 52.49155639067623,
        "lon": -29.238310157130982,
        "alt_km": 835.9116850765868,
        "timestamp": "2025-12-02T10:50:47.545966+00:00",
        "meta_object_name": "FENGYUN 1C DEB",
        "meta_object_id": "1999-025FX",
        "meta_epoch": "2025-12-02T00:48:16.965216",
        "meta_mean_motion": 14.24752416,
        "meta_eccentricity": 0.0045535,
        "meta_inclination": 98.5374,
        "meta_ra_of_asc_node": 341.6407,
        "meta_arg_of_pericenter": 250.1871,
        "meta_mean_anomaly": 178.2263,
        "meta_ephemeris_type": 0,
        "meta_classification_type": "U",
        "meta_norad_cat_id": 29877,
        "meta_element_set_no": 999,
        "meta_rev_at_epoch": 97821,
        "meta_bstar": 0.00054316,
        "meta_mean_motion_dot": 1.236e-05,
        "meta_mean_motion_ddot": 0,
        "tle_line1": "1 29877U 99025FX  25336.03352969  .00001236  00000+0  54316-3 0  9997",
        "tle_line2": "2 29877  98.5374 341.6407 0045535 250.1871 178.2263 14.24752416978214"
      },
      "geometry": {
        "type": "Point",
        "coordinates": [
          -29.238310157130982,
          52.49155639067623
        ]
      }
    },
    {
      "type": "Feature",
      "properties": {
        "norad_id": 29878,
        "name": "FENGYUN 1C DEB",
        "group": "fengyun-1c-debris",
        "lat": -56.59162487791725,
        "lon": -40.71799044115059,
        "alt_km": 533.914767604977,
        "timestamp": "2025-12-02T10:50:47.545977+00:00",
        "meta_object_name": "FENGYUN 1C DEB",
        "meta_object_id": "1999-025FY",
        "meta_epoch": "2025-12-02T00:13:46.362432",
        "meta_mean_motion": 15.06097229,
        "meta_eccentricity": 0.0033647,
        "meta_inclination": 96.952,
        "meta_ra_of_asc_node": 149.5435,
        "meta_arg_of_pericenter": 213.0316,
        "meta_mean_anomaly": 146.8811,
        "meta_ephemeris_type": 0,
        "meta_classification_type": "U",
        "meta_norad_cat_id": 29878,
        "meta_element_set_no": 999,
        "meta_rev_at_epoch": 98486,
        "meta_bstar": 0.0082421,
        "meta_mean_motion_dot": 0.00123879,
        "meta_mean_motion_ddot": 0,
        "tle_line1": "1 29878U 99025FY  25336.00956438  .00123879  00000+0  82421-2 0  9991",
        "tle_line2": "2 29878  96.9520 149.5435 0033647 213.0316 146.8811 15.06097229984862"
      },
      "geometry": {
        "type": "Point",
        "coordinates": [
          -40.71799044115059,
          -56.59162487791725
        ]
      }
    },
    {
      "type": "Feature",
      "properties": {
        "norad_id": 29880,
        "name": "FENGYUN 1C DEB",
        "group": "fengyun-1c-debris",
        "lat": 8.720839970026443,
        "lon": -105.12043894352854,
        "alt_km": 1001.7431611627244,
        "timestamp": "2025-12-02T10:50:47.545987+00:00",
        "meta_object_name": "FENGYUN 1C DEB",
        "meta_object_id": "1999-025GA",
        "meta_epoch": "2025-12-02T00:32:43.528128",
        "meta_mean_motion": 13.93859125,
        "meta_eccentricity": 0.0231015,
        "meta_inclination": 98.1938,
        "meta_ra_of_asc_node": 255.7649,
        "meta_arg_of_pericenter": 131.5212,
        "meta_mean_anomaly": 247.1388,
        "meta_ephemeris_type": 0,
        "meta_classification_type": "U",
        "meta_norad_cat_id": 29880,
        "meta_element_set_no": 999,
        "meta_rev_at_epoch": 95413,
        "meta_bstar": 0.00095933,
        "meta_mean_motion_dot": 1.543e-05,
        "meta_mean_motion_ddot": 0,
        "tle_line1": "1 29880U 99025GA  25336.02272602  .00001543  00000+0  95933-3 0  9996",
        "tle_line2": "2 29880  98.1938 255.7649 0231015 131.5212 247.1388 13.93859125954133"
      },
      "geometry": {
        "type": "Point",
        "coordinates": [
          -105.12043894352854,
          8.720839970026443
        ]
      }
    },
    {
      "type": "Feature",
      "properties": {
        "norad_id": 29881,
        "name": "FENGYUN 1C DEB",
        "group": "fengyun-1c-debris",
        "lat": -66.07807467090731,
        "lon": -30.01288691492775,
        "alt_km": 1254.096611056274,
        "timestamp": "2025-12-02T10:50:47.545997+00:00",
        "meta_object_name": "FENGYUN 1C DEB",
        "meta_object_id": "1999-025GB",
        "meta_epoch": "2025-12-01T21:19:42.686400",
        "meta_mean_motion": 13.59549214,
        "meta_eccentricity": 0.029156,
        "meta_inclination": 98.7209,
        "meta_ra_of_asc_node": 309.2416,
        "meta_arg_of_pericenter": 100.0143,
        "meta_mean_anomaly": 317.9156,
        "meta_ephemeris_type": 0,
        "meta_classification_type": "U",
        "meta_norad_cat_id": 29881,
        "meta_element_set_no": 999,
        "meta_rev_at_epoch": 93087,
        "meta_bstar": 0.0021795,
        "meta_mean_motion_dot": 2.101e-05,
        "meta_mean_motion_ddot": 0,
        "tle_line1": "1 29881U 99025GB  25335.88868850  .00002101  00000+0  21795-2 0  9991",
        "tle_line2": "2 29881  98.7209 309.2416 0291560 100.0143 317.9156 13.59549214930874"
      },
      "geometry": {
        "type": "Point",
        "coordinates": [
          -30.01288691492775,
          -66.07807467090731
        ]
      }
    },
    {
      "type": "Feature",
      "properties": {
        "norad_id": 29884,
        "name": "FENGYUN 1C DEB",
        "group": "fengyun-1c-debris",
        "lat": 29.224464329890765,
        "lon": -165.9225535995735,
        "alt_km": 725.8032849336378,
        "timestamp": "2025-12-02T10:50:47.546007+00:00",
        "meta_object_name": "FENGYUN 1C DEB",
        "meta_object_id": "1999-025GE",
        "meta_epoch": "2025-12-02T01:56:00.568896",
        "meta_mean_motion": 14.40225225,
        "meta_eccentricity": 0.0044414,
        "meta_inclination": 99.6044,
        "meta_ra_of_asc_node": 8.2256,
        "meta_arg_of_pericenter": 167.3722,
        "meta_mean_anomaly": 218.5427,
        "meta_ephemeris_type": 0,
        "meta_classification_type": "U",
        "meta_norad_cat_id": 29884,
        "meta_element_set_no": 999,
        "meta_rev_at_epoch": 98396,
        "meta_bstar": 0.00078815,
        "meta_mean_motion_dot": 2.47e-05,
        "meta_mean_motion_ddot": 0,
        "tle_line1": "1 29884U 99025GE  25336.08056214  .00002470  00000+0  78815-3 0  9995",
        "tle_line2": "2 29884  99.6044   8.2256 0044414 167.3722 218.5427 14.40225225983964"
      },
      "geometry": {
        "type": "Point",
        "coordinates": [
          -165.9225535995735,
          29.224464329890765
        ]
      }
    },
    {
      "type": "Feature",
      "properties": {
        "norad_id": 29885,
        "name": "FENGYUN 1C DEB",
        "group": "fengyun-1c-debris",
        "lat": -77.9617532602125,
        "lon": -44.28986032227691,
        "alt_km": 845.7761604154684,
        "timestamp": "2025-12-02T10:50:47.546017+00:00",
        "meta_object_name": "FENGYUN 1C DEB",
        "meta_object_id": "1999-025GF",
        "meta_epoch": "2025-12-01T20:17:51.656928",
        "meta_mean_motion": 14.13571871,
        "meta_eccentricity": 0.0117722,
        "meta_inclination": 98.3539,
        "meta_ra_of_asc_node": 271.5905,
        "meta_arg_of_pericenter": 195.6724,
        "meta_mean_anomaly": 238.5656,
        "meta_ephemeris_type": 0,
        "meta_classification_type": "U",
        "meta_norad_cat_id": 29885,
        "meta_element_set_no": 999,
        "meta_rev_at_epoch": 97303,
        "meta_bstar": 0.00015828,
        "meta_mean_motion_dot": 2.79e-06,
        "meta_mean_motion_ddot": 0,
        "tle_line1": "1 29885U 99025GF  25335.84573677  .00000279  00000+0  15828-3 0  9996",
        "tle_line2": "2 29885  98.3539 271.5905 0117722 195.6724 238.5656 14.13571871973039"
      },
      "geometry": {
        "type": "Point",
        "coordinates": [
          -44.28986032227691,
          -77.9617532602125
        ]
      }
    }
  ]
}